start=new Date('2021-09-27T00:00:00.000Z').valueOf();
sats=[{"INCLINATION":"53.0545","RCS_SIZE":"LARGE","CENTER_NAME":"EARTH","MEAN_ANOMALY":"279.6317","COUNTRY_CODE":"US","BSTAR":"-0.00000865640000","OBJECT_ID":"2020-038AD","MEAN_MOTION_DOT":"-0.00000410","ELEMENT_SET_NO":"999","TLE_LINE1":"1 45757U 20038AD  21269.37988100 -.00000410  00000-0 -86564-5 0  9998","NORAD_CAT_ID":"45757","EPOCH":"2021-09-26T09:07:01.718400","PERIOD":"95.592","TLE_LINE2":"2 45757  53.0545 312.9276 0001368  80.4827 279.6317 15.06395967 71496","CLASSIFICATION_TYPE":"U","EPHEMERIS_TYPE":"0","GP_ID":"185549357","REV_AT_EPOCH":"7149","FILE":"3129258","SITE":"AFETR","RA_OF_ASC_NODE":"312.9276","APOAPSIS":"548.173","OBJECT_NAME":"STARLINK-1486","TIME_SYSTEM":"UTC","ECCENTRICITY":"0.00013680","PERIAPSIS":"546.279","SEMIMAJOR_AXIS":"6925.361","OBJECT_TYPE":"PAYLOAD","DECAY_DATE":null,"ARG_OF_PERICENTER":"80.4827","REF_FRAME":"TEME","LAUNCH_DATE":"2020-06-13","MEAN_MOTION_DDOT":"0.0000000000000","MEAN_ELEMENT_THEORY":"SGP4","MEAN_MOTION":"15.06395967"},{"INCLINATION":"53.0549","RCS_SIZE":"LARGE","CENTER_NAME":"EARTH","MEAN_ANOMALY":"265.1123","COUNTRY_CODE":"US","BSTAR":"-0.00001345400000","OBJECT_ID":"2020-038AE","MEAN_MOTION_DOT":"-0.00000482","ELEMENT_SET_NO":"999","TLE_LINE1":"1 45758U 20038AE  21269.43885389 -.00000482  00000-0 -13454-4 0  9997","NORAD_CAT_ID":"45758","EPOCH":"2021-09-26T10:31:56.976096","PERIOD":"95.592","TLE_LINE2":"2 45758  53.0549 312.6622 0001022  94.9983 265.1123 15.06403318 71500","EPHEMERIS_TYPE":"0","CLASSIFICATION_TYPE":"U","GP_ID":"185579756","REV_AT_EPOCH":"7150","SITE":"AFETR","FILE":"3129566","RA_OF_ASC_NODE":"312.6622","APOAPSIS":"547.911","TIME_SYSTEM":"UTC","OBJECT_NAME":"STARLINK-1487","ECCENTRICITY":"0.00010220","PERIAPSIS":"546.496","SEMIMAJOR_AXIS":"6925.338","OBJECT_TYPE":"PAYLOAD","DECAY_DATE":null,"ARG_OF_PERICENTER":"94.9983","REF_FRAME":"TEME","LAUNCH_DATE":"2020-06-13","MEAN_MOTION_DDOT":"0.0000000000000","MEAN_ELEMENT_THEORY":"SGP4","MEAN_MOTION":"15.06403318"},{"PERIOD":"95.592","EPHEMERIS_TYPE":"0","TLE_LINE2":"2 45759  53.0537 312.7494 0000843  94.8598 265.2487 15.06395822 71501","CLASSIFICATION_TYPE":"U","NORAD_CAT_ID":"45759","EPOCH":"2021-09-26T10:05:24.864288","TLE_LINE1":"1 45759U 20038AF  21269.42042667 -.00000762  00000-0 -32293-4 0  9994","MEAN_MOTION_DOT":"-0.00000762","ELEMENT_SET_NO":"999","BSTAR":"-0.00003229300000","OBJECT_ID":"2020-038AF","CENTER_NAME":"EARTH","RCS_SIZE":"LARGE","COUNTRY_CODE":"US","MEAN_ANOMALY":"265.2487","INCLINATION":"53.0537","OBJECT_TYPE":"PAYLOAD","SEMIMAJOR_AXIS":"6925.361","DECAY_DATE":null,"PERIAPSIS":"546.643","ECCENTRICITY":"0.00008430","OBJECT_NAME":"STARLINK-1493","TIME_SYSTEM":"UTC","RA_OF_ASC_NODE":"312.7494","APOAPSIS":"547.810","FILE":"3129258","SITE":"AFETR","GP_ID":"185550359","REV_AT_EPOCH":"7150","ARG_OF_PERICENTER":"94.8598","MEAN_ELEMENT_THEORY":"SGP4","MEAN_MOTION":"15.06395822","MEAN_MOTION_DDOT":"0.0000000000000","LAUNCH_DATE":"2020-06-13","REF_FRAME":"TEME"},{"ARG_OF_PERICENTER":"98.6719","MEAN_ELEMENT_THEORY":"SGP4","MEAN_MOTION":"15.06369083","MEAN_MOTION_DDOT":"0.0000000000000","REF_FRAME":"TEME","LAUNCH_DATE":"2020-06-13","EPOCH":"2021-09-26T10:10:45.363360","NORAD_CAT_ID":"45760","EPHEMERIS_TYPE":"0","TLE_LINE2":"2 45760  53.0560 312.7315 0000966  98.6719 261.4379 15.06369083 71513","CLASSIFICATION_TYPE":"U","PERIOD":"95.594","ELEMENT_SET_NO":"999","MEAN_MOTION_DOT":"-0.00002844","TLE_LINE1":"1 45760U 20038AG  21269.42413615 -.00002844  00000-0 -17225-3 0  9991","MEAN_ANOMALY":"261.4379","COUNTRY_CODE":"US","CENTER_NAME":"EARTH","RCS_SIZE":"LARGE","BSTAR":"-0.00017225000000","OBJECT_ID":"2020-038AG","INCLINATION":"53.0560","PERIAPSIS":"546.639","DECAY_DATE":null,"SEMIMAJOR_AXIS":"6925.443","OBJECT_TYPE":"PAYLOAD","TIME_SYSTEM":"UTC","OBJECT_NAME":"STARLINK-1494","ECCENTRICITY":"0.00009660","FILE":"3129258","SITE":"AFETR","APOAPSIS":"547.977","RA_OF_ASC_NODE":"312.7315","REV_AT_EPOCH":"7151","GP_ID":"185549107"},{"ARG_OF_PERICENTER":"36.4687","MEAN_MOTION_DDOT":"0.0000000000000","MEAN_MOTION":"15.42171385","MEAN_ELEMENT_THEORY":"SGP4","REF_FRAME":"TEME","LAUNCH_DATE":"2020-06-13","MEAN_MOTION_DOT":"0.00017848","ELEMENT_SET_NO":"999","TLE_LINE1":"1 45761U 20038AH  21269.68766276  .00017848  00000-0  41843-3 0  9995","NORAD_CAT_ID":"45761","EPOCH":"2021-09-26T16:30:14.062464","PERIOD":"93.375","TLE_LINE2":"2 45761  53.0543 300.6739 0002341  36.4687 323.6477 15.42171385 71712","EPHEMERIS_TYPE":"0","CLASSIFICATION_TYPE":"U","INCLINATION":"53.0543","RCS_SIZE":"LARGE","CENTER_NAME":"EARTH","COUNTRY_CODE":"US","MEAN_ANOMALY":"323.6477","OBJECT_ID":"2020-038AH","BSTAR":"0.00041843000000","TIME_SYSTEM":"UTC","OBJECT_NAME":"STARLINK-1495","ECCENTRICITY":"0.00023410","PERIAPSIS":"438.108","SEMIMAJOR_AXIS":"6817.839","OBJECT_TYPE":"PAYLOAD","DECAY_DATE":null,"GP_ID":"185581008","REV_AT_EPOCH":"7171","FILE":"3129566","SITE":"AFETR","RA_OF_ASC_NODE":"300.6739","APOAPSIS":"441.300"},{"PERIAPSIS":"546.586","DECAY_DATE":null,"OBJECT_TYPE":"PAYLOAD","SEMIMAJOR_AXIS":"6925.330","OBJECT_NAME":"STARLINK-1499","TIME_SYSTEM":"UTC","ECCENTRICITY":"0.00008800","FILE":"3129258","SITE":"AFETR","APOAPSIS":"547.805","RA_OF_ASC_NODE":"312.8627","REV_AT_EPOCH":"7151","GP_ID":"185550109","EPOCH":"2021-09-26T09:28:15.495456","NORAD_CAT_ID":"45762","CLASSIFICATION_TYPE":"U","TLE_LINE2":"2 45762  53.0548 312.8627 0000880  90.5782 269.5308 15.06405987 71519","EPHEMERIS_TYPE":"0","PERIOD":"95.592","ELEMENT_SET_NO":"999","MEAN_MOTION_DOT":"0.00000234","TLE_LINE1":"1 45762U 20038AJ  21269.39462379  .00000234  00000-0  34596-4 0  9990","COUNTRY_CODE":"US","MEAN_ANOMALY":"269.5308","CENTER_NAME":"EARTH","RCS_SIZE":"LARGE","OBJECT_ID":"2020-038AJ","BSTAR":"0.00003459600000","INCLINATION":"53.0548","MEAN_ELEMENT_THEORY":"SGP4","MEAN_MOTION":"15.06405987","MEAN_MOTION_DDOT":"0.0000000000000","REF_FRAME":"TEME","LAUNCH_DATE":"2020-06-13","ARG_OF_PERICENTER":"90.5782"},{"MEAN_MOTION_DDOT":"0.0000000000000","MEAN_MOTION":"15.66263006","MEAN_ELEMENT_THEORY":"SGP4","LAUNCH_DATE":"2020-06-13","REF_FRAME":"TEME","ARG_OF_PERICENTER":"30.9854","ECCENTRICITY":"0.00037790","OBJECT_NAME":"STARLINK-1501","TIME_SYSTEM":"UTC","DECAY_DATE":null,"SEMIMAJOR_AXIS":"6747.746","OBJECT_TYPE":"PAYLOAD","PERIAPSIS":"367.061","REV_AT_EPOCH":"7296","GP_ID":"185555549","APOAPSIS":"372.161","RA_OF_ASC_NODE":"273.7025","SITE":"AFETR","FILE":"3129371","TLE_LINE1":"1 45763U 20038AK  21269.31134837  .00022830  00000-0  22161-3 0  9998","ELEMENT_SET_NO":"999","MEAN_MOTION_DOT":"0.00022830","TLE_LINE2":"2 45763  53.0540 273.7025 0003779  30.9854 329.1383 15.66263006 72963","CLASSIFICATION_TYPE":"U","EPHEMERIS_TYPE":"0","PERIOD":"91.939","EPOCH":"2021-09-26T07:28:20.499168","NORAD_CAT_ID":"45763","INCLINATION":"53.0540","BSTAR":"0.00022161000000","OBJECT_ID":"2020-038AK","MEAN_ANOMALY":"329.1383","COUNTRY_CODE":"US","RCS_SIZE":"LARGE","CENTER_NAME":"EARTH"},{"PERIAPSIS":"546.773","DECAY_DATE":null,"SEMIMAJOR_AXIS":"6925.381","OBJECT_TYPE":"PAYLOAD","OBJECT_NAME":"STARLINK-1502","TIME_SYSTEM":"UTC","ECCENTRICITY":"0.00006820","FILE":"3129258","SITE":"AFETR","APOAPSIS":"547.718","RA_OF_ASC_NODE":"312.8860","REV_AT_EPOCH":"7151","GP_ID":"185548608","EPOCH":"2021-09-26T09:17:38.815584","NORAD_CAT_ID":"45764","TLE_LINE2":"2 45764  53.0537 312.8860 0000682  69.5155 290.5907 15.06389520 71511","EPHEMERIS_TYPE":"0","CLASSIFICATION_TYPE":"U","PERIOD":"95.593","ELEMENT_SET_NO":"999","MEAN_MOTION_DOT":"-0.00000366","TLE_LINE1":"1 45764U 20038AL  21269.38725481 -.00000366  00000-0 -56683-5 0  9997","COUNTRY_CODE":"US","MEAN_ANOMALY":"290.5907","CENTER_NAME":"EARTH","RCS_SIZE":"LARGE","BSTAR":"-0.00000566830000","OBJECT_ID":"2020-038AL","INCLINATION":"53.0537","MEAN_MOTION":"15.06389520","MEAN_ELEMENT_THEORY":"SGP4","MEAN_MOTION_DDOT":"0.0000000000000","REF_FRAME":"TEME","LAUNCH_DATE":"2020-06-13","ARG_OF_PERICENTER":"69.5155"},{"LAUNCH_DATE":"2020-06-13","REF_FRAME":"TEME","MEAN_MOTION_DDOT":"0.0000000000000","MEAN_ELEMENT_THEORY":"SGP4","MEAN_MOTION":"15.75556530","ARG_OF_PERICENTER":"161.7055","GP_ID":"185580509","REV_AT_EPOCH":"7179","RA_OF_ASC_NODE":"294.1991","APOAPSIS":"344.440","FILE":"3129566","SITE":"AFETR","ECCENTRICITY":"0.00020680","OBJECT_NAME":"STARLINK-1508","TIME_SYSTEM":"UTC","OBJECT_TYPE":"PAYLOAD","SEMIMAJOR_AXIS":"6721.185","DECAY_DATE":null,"PERIAPSIS":"341.660","INCLINATION":"53.0527","BSTAR":"0.00280220000000","OBJECT_ID":"2020-038AM","CENTER_NAME":"EARTH","RCS_SIZE":"LARGE","MEAN_ANOMALY":"198.4038","COUNTRY_CODE":"US","TLE_LINE1":"1 45765U 20038AM  21269.58191908  .00459430  00000-0  28022-2 0  9992","MEAN_MOTION_DOT":"0.00459430","ELEMENT_SET_NO":"999","PERIOD":"91.396","TLE_LINE2":"2 45765  53.0527 294.1991 0002068 161.7055 198.4038 15.75556530 71796","EPHEMERIS_TYPE":"0","CLASSIFICATION_TYPE":"U","NORAD_CAT_ID":"45765","EPOCH":"2021-09-26T13:57:57.808512"},{"GP_ID":"185579757","REV_AT_EPOCH":"7150","FILE":"3129566","SITE":"AFETR","RA_OF_ASC_NODE":"312.6438","APOAPSIS":"547.837","TIME_SYSTEM":"UTC","OBJECT_NAME":"STARLINK-1509","ECCENTRICITY":"0.00008630","PERIAPSIS":"546.642","SEMIMAJOR_AXIS":"6925.374","OBJECT_TYPE":"PAYLOAD","DECAY_DATE":null,"INCLINATION":"53.0562","RCS_SIZE":"LARGE","CENTER_NAME":"EARTH","MEAN_ANOMALY":"278.2090","COUNTRY_CODE":"US","OBJECT_ID":"2020-038AN","BSTAR":"0.00000912920000","MEAN_MOTION_DOT":"-0.00000145","ELEMENT_SET_NO":"999","TLE_LINE1":"1 45766U 20038AN  21269.44254955 -.00000145  00000-0  91292-5 0  9998","NORAD_CAT_ID":"45766","EPOCH":"2021-09-26T10:37:16.281120","PERIOD":"95.593","EPHEMERIS_TYPE":"0","TLE_LINE2":"2 45766  53.0562 312.6438 0000863  81.8997 278.2090 15.06391605 71504","CLASSIFICATION_TYPE":"U","REF_FRAME":"TEME","LAUNCH_DATE":"2020-06-13","MEAN_MOTION_DDOT":"0.0000000000000","MEAN_MOTION":"15.06391605","MEAN_ELEMENT_THEORY":"SGP4","ARG_OF_PERICENTER":"81.8997"}];
